{
  "type": "FeatureCollection",
  "features": [
    {
      "type": "Feature",
      "properties": {
        "norad_id": 27954,
        "name": "GALAXY 13 (HORIZONS-1)",
        "group": "intelsat",
        "lat": 0.62568678054306,
        "lon": -135.70061862476442,
        "alt_km": 35778.87574138869,
        "timestamp": "2025-12-21T18:54:58.160782+00:00",
        "meta_object_name": "GALAXY 13 (HORIZONS-1)",
        "meta_object_id": "2003-044A",
        "meta_epoch": "2025-12-21T12:24:14.906880",
        "meta_mean_motion": 1.00270258,
        "meta_eccentricity": 0.00023713,
        "meta_inclination": 0.9592,
        "meta_ra_of_asc_node": 86.3582,
        "meta_arg_of_pericenter": 179.4188,
        "meta_mean_anomaly": 220.5966,
        "meta_ephemeris_type": 0,
        "meta_classification_type": "U",
        "meta_norad_cat_id": 27954,
        "meta_element_set_no": 999,
        "meta_rev_at_epoch": 4479,
        "meta_bstar": 0,
        "meta_mean_motion_dot": 1.55e-06,
        "meta_mean_motion_ddot": 0,
        "tle_line1": "1 27954U 03044A   25355.51683920  .00000155  00000+0  00000+0 0  9991",
        "tle_line2": "2 27954   0.9592  86.3582 0002371 179.4188 220.5966  1.00270258 44796"
      },
      "geometry": {
        "type": "Point",
        "coordinates": [
          -135.70061862476442,
          0.62568678054306
        ]
      }
    },
    {
      "type": "Feature",
      "properties": {
        "norad_id": 28358,
        "name": "INTELSAT 10-02",
        "group": "intelsat",
        "lat": -0.01462423560109087,
        "lon": 13.38833442317949,
        "alt_km": 35784.04488958431,
        "timestamp": "2025-12-21T18:54:58.160794+00:00",
        "meta_object_name": "INTELSAT 10-02",
        "meta_object_id": "2004-022A",
        "meta_epoch": "2025-12-21T06:51:38.552832",
        "meta_mean_motion": 1.00272906,
        "meta_eccentricity": 9.847e-05,
        "meta_inclination": 0.0216,
        "meta_ra_of_asc_node": 73.3158,
        "meta_arg_of_pericenter": 234.5861,
        "meta_mean_anomaly": 244.1552,
        "meta_ephemeris_type": 0,
        "meta_classification_type": "U",
        "meta_norad_cat_id": 28358,
        "meta_element_set_no": 999,
        "meta_rev_at_epoch": 7877,
        "meta_bstar": 0,
        "meta_mean_motion_dot": 1.2e-07,
        "meta_mean_motion_ddot": 0,
        "tle_line1": "1 28358U 04022A   25355.28586288  .00000012  00000+0  00000+0 0  9992",
        "tle_line2": "2 28358   0.0216  73.3158 0000984 234.5861 244.1552  1.00272906 78773"
      },
      "geometry": {
        "type": "Point",
        "coordinates": [
          13.38833442317949,
          -0.01462423560109087
        ]
      }
    },
    {
      "type": "Feature",
      "properties": {
        "norad_id": 28626,
        "name": "XM-3 (RHYTHM)",
        "group": "intelsat",
        "lat": 0.038381049826092764,
        "lon": 85.65011585197968,
        "alt_km": 36160.206806129485,
        "timestamp": "2025-12-21T18:54:58.160806+00:00",
        "meta_object_name": "XM-3 (RHYTHM)",
        "meta_object_id": "2005-008A",
        "meta_epoch": "2025-12-21T13:32:30.775776",
        "meta_mean_motion": 0.98949862,
        "meta_eccentricity": 0.00019955,
        "meta_inclination": 0.1963,
        "meta_ra_of_asc_node": 82.0268,
        "meta_arg_of_pericenter": 277.5305,
        "meta_mean_anomaly": 6.3091,
        "meta_ephemeris_type": 0,
        "meta_classification_type": "U",
        "meta_norad_cat_id": 28626,
        "meta_element_set_no": 999,
        "meta_rev_at_epoch": 4083,
        "meta_bstar": 0,
        "meta_mean_motion_dot": 8.7e-07,
        "meta_mean_motion_ddot": 0,
        "tle_line1": "1 28626U 05008A   25355.56424509  .00000087  00000+0  00000+0 0  9995",
        "tle_line2": "2 28626   0.1963  82.0268 0001995 277.5305   6.3091  0.98949862 40833"
      },
      "geometry": {
        "type": "Point",
        "coordinates": [
          85.65011585197968,
          0.038381049826092764
        ]
      }
    },
    {
      "type": "Feature",
      "properties": {
        "norad_id": 28659,
        "name": "DIRECTV 8",
        "group": "intelsat",
        "lat": -0.04481205086268725,
        "lon": -104.72850124547233,
        "alt_km": 35775.4704940887,
        "timestamp": "2025-12-21T18:54:58.160829+00:00",
        "meta_object_name": "DIRECTV 8",
        "meta_object_id": "2005-019A",
        "meta_epoch": "2025-12-21T12:39:28.378656",
        "meta_mean_motion": 1.00270142,
        "meta_eccentricity": 0.00029327,
        "meta_inclination": 0.0251,
        "meta_ra_of_asc_node": 19.451,
        "meta_arg_of_pericenter": 262.9428,
        "meta_mean_anomaly": 238.7715,
        "meta_ephemeris_type": 0,
        "meta_classification_type": "U",
        "meta_norad_cat_id": 28659,
        "meta_element_set_no": 999,
        "meta_rev_at_epoch": 7529,
        "meta_bstar": 0,
        "meta_mean_motion_dot": 0,
        "meta_mean_motion_ddot": 0,
        "tle_line1": "1 28659U 05019A   25355.52741179  .00000000  00000+0  00000+0 0  9999",
        "tle_line2": "2 28659   0.0251  19.4510 0002932 262.9428 238.7715  1.00270142 75292"
      },
      "geometry": {
        "type": "Point",
        "coordinates": [
          -104.72850124547233,
          -0.04481205086268725
        ]
      }
    },
    {
      "type": "Feature",
      "properties": {
        "norad_id": 28702,
        "name": "GALAXY 28 (G-28)",
        "group": "intelsat",
        "lat": -1.2037746566938976,
        "lon": -74.36711519814583,
        "alt_km": 35774.299685562895,
        "timestamp": "2025-12-21T18:54:58.160855+00:00",
        "meta_object_name": "GALAXY 28 (G-28)",
        "meta_object_id": "2005-022A",
        "meta_epoch": "2025-12-20T00:49:30.482112",
        "meta_mean_motion": 1.00271047,
        "meta_eccentricity": 0.00029384,
        "meta_inclination": 2.8382,
        "meta_ra_of_asc_node": 81.1982,
        "meta_arg_of_pericenter": 194.0723,
        "meta_mean_anomaly": 97.2981,
        "meta_ephemeris_type": 0,
        "meta_classification_type": "U",
        "meta_norad_cat_id": 28702,
        "meta_element_set_no": 999,
        "meta_rev_at_epoch": 5017,
        "meta_bstar": 0,
        "meta_mean_motion_dot": -1.65e-06,
        "meta_mean_motion_ddot": 0,
        "tle_line1": "1 28702U 05022A   25354.03438058 -.00000165  00000+0  00000+0 0  9999",
        "tle_line2": "2 28702   2.8382  81.1982 0002938 194.0723  97.2981  1.00271047 50172"
      },
      "geometry": {
        "type": "Point",
        "coordinates": [
          -74.36711519814583,
          -1.2037746566938976
        ]
      }
    },
    {
      "type": "Feature",
      "properties": {
        "norad_id": 29236,
        "name": "GALAXY 16 (G-16)",
        "group": "intelsat",
        "lat": 0.011797188729950704,
        "lon": -84.6693015587709,
        "alt_km": 35775.76794706668,
        "timestamp": "2025-12-21T18:54:58.160870+00:00",
        "meta_object_name": "GALAXY 16 (G-16)",
        "meta_object_id": "2006-023A",
        "meta_epoch": "2025-12-21T12:50:45.225024",
        "meta_mean_motion": 1.00270879,
        "meta_eccentricity": 0.0002496,
        "meta_inclination": 0.0135,
        "meta_ra_of_asc_node": 164.934,
        "meta_arg_of_pericenter": 108.8005,
        "meta_mean_anomaly": 270.3011,
        "meta_ephemeris_type": 0,
        "meta_classification_type": "U",
        "meta_norad_cat_id": 29236,
        "meta_element_set_no": 999,
        "meta_rev_at_epoch": 7119,
        "meta_bstar": 0,
        "meta_mean_motion_dot": -1.04e-06,
        "meta_mean_motion_ddot": 0,
        "tle_line1": "1 29236U 06023A   25355.53524566 -.00000104  00000+0  00000+0 0  9993",
        "tle_line2": "2 29236   0.0135 164.9340 0002496 108.8005 270.3011  1.00270879 71199"
      },
      "geometry": {
        "type": "Point",
        "coordinates": [
          -84.6693015587709,
          0.011797188729950704
        ]
      }
    },
    {
      "type": "Feature",
      "properties": {
        "norad_id": 29494,
        "name": "DIRECTV 9S",
        "group": "intelsat",
        "lat": -0.3673373079761727,
        "lon": -86.87905864641664,
        "alt_km": 35774.15206177269,
        "timestamp": "2025-12-21T18:54:58.160882+00:00",
        "meta_object_name": "DIRECTV 9S",
        "meta_object_id": "2006-043A",
        "meta_epoch": "2025-12-21T12:49:55.974432",
        "meta_mean_motion": 1.0027151,
        "meta_eccentricity": 0.00028511,
        "meta_inclination": 1.9615,
        "meta_ra_of_asc_node": 83.1209,
        "meta_arg_of_pericenter": 193.3842,
        "meta_mean_anomaly": 265.1198,
        "meta_ephemeris_type": 0,
        "meta_classification_type": "U",
        "meta_norad_cat_id": 29494,
        "meta_element_set_no": 999,
        "meta_rev_at_epoch": 4960,
        "meta_bstar": 0,
        "meta_mean_motion_dot": -9.2e-07,
        "meta_mean_motion_ddot": 0,
        "tle_line1": "1 29494U 06043A   25355.53467563 -.00000092  00000+0  00000+0 0  9990",
        "tle_line2": "2 29494   1.9615  83.1209 0002851 193.3842 265.1198  1.00271510 49609"
      },
      "geometry": {
        "type": "Point",
        "coordinates": [
          -86.87905864641664,
          -0.3673373079761727
        ]
      }
    }
  ]
}